satname,norad_id,inclination_deg,eccentricity,mean_motion_rev_per_day,perigee_km,apogee_km,l1,l2
STARLINK-1296,45412,53.1575,0.0002684,15.34325662,461.08805650449085,464.76033815521714,1 45412U 20019BE  26115.78961663  .00030720  00000+0  91873-3 0  9991,2 45412  53.1575 269.7965 0002684 276.0809  83.9888 15.34325662337194
STARLINK-1309,45414,53.0625,0.0005089,15.63933437,372.8705851617269,379.74525920352426,1 45414U 20019BG  26115.66848568  .00084856  00000+0  88081-3 0  9994,2 45414  53.0625 255.0411 0005089 249.3869 110.6600 15.63933437337362
STARLINK-1316,45415,53.1581,0.0003257,15.34628453,459.79647344252135,464.2521545224499,1 45415U 20019BH  26115.70194415  .00044148  00000+0  13005-2 0  9998,2 45415  53.1581 270.2312 0003257 276.8534  83.2098 15.34628453337209
STARLINK-1286,45417,53.0468,0.0002397,15.54702863,401.39106502467257,404.64195001617827,1 45417U 20019BK  26115.84912271  .00051360  00000+0  76285-3 0  9997,2 45417  53.0468 263.4692 0002397 225.2255 134.8561 15.54702863337557
STARLINK-1308,45419,53.0496,0.0005564,15.59119592,386.43795457479337,393.9697642831661,1 45419U 20019BM  26115.79294753  .00091629  00000+0  11437-2 0  9990,2 45419  53.0496 284.3835 0005564 229.6549 130.3977 15.59119592337002
STARLINK-1329,45531,53.0435,0.0003411,15.68103754,362.0272802245845,366.62698925730456,1 45531U 20025A   26115.61029265  .00062808  00000+0  55458-3 0  9996,2 45531  53.0435 211.4198 0003411   0.4472 359.6546 15.68103754332794
STARLINK-1338,45532,53.0445,0.0002414,15.63139429,376.963966297496,380.2261165270893,1 45532U 20025B   26115.69405013  .00092371  00000+0  98813-3 0  9994,2 45532  53.0445 216.1194 0002414 327.3676  32.7188 15.63139429332731
STARLINK-1350,45535,53.0722,7.09e-05,15.37263901,453.71992759370187,454.6887535957985,1 45535U 20025E   26115.42200391  .00014415  00000+0  39890-3 0  9993,2 45535  53.0722 173.4667 0000709  59.5072 300.6000 15.37263901333343
STARLINK-1362,45538,53.1588,0.000202,15.33059254,465.30846854489755,468.0737791069241,1 45538U 20025H   26115.57943417 -.00150402  00000+0 -47260-2 0  9993,2 45538  53.1588 242.7909 0002020  67.7875 292.3341 15.33059254332362
STARLINK-1368,45540,53.1572,0.0001705,15.33541704,464.0886681154161,466.42226494650276,1 45540U 20025K   26115.65842980  .00039642  00000+0  12106-2 0  9999,2 45540  53.1572 242.7954 0001705   9.9465 350.1570 15.33541704332363
STARLINK-1371,45542,53.0465,0.0004587,15.54776841,399.69098618494445,405.9118190755171,1 45542U 20025M   26115.65654171  .00071614  00000+0  10551-2 0  9991,2 45542  53.0465 223.6914 0004587 329.0895  30.9844 15.54776841332624
STARLINK-1372,45543,53.1576,0.0001668,15.33943375,462.919484011607,465.20204118520905,1 45543U 20025N   26115.82647014  .00045661  00000+0  13740-2 0  9995,2 45543  53.1576 241.6617 0001668   1.7045 358.3963 15.33943375331495
STARLINK-1373,45544,53.0456,0.0002156,15.59185094,388.55508418024783,391.47351101977347,1 45544U 20025P   26115.67758440  .00073816  00000+0  92282-3 0  9997,2 45544  53.0456 221.7690 0002156 312.7099  47.3731 15.59185094332650
STARLINK-1327,45555,53.043,0.0004179,15.61744893,379.79133716839897,385.4419750741854,1 45555U 20025AA  26115.47803217  .00067897  00000+0  77052-3 0  9990,2 45555  53.0430 199.3492 0004179 289.7297  70.3264 15.61744893332944
STARLINK-1356,45564,53.0474,0.0002766,15.51984182,409.0555762232989,412.8112899868929,1 45564U 20025AK  26115.71614999  .00062184  00000+0  10160-2 0  9994,2 45564  53.0474 208.6946 0002766 296.4134  63.6591 15.51984182332837
STARLINK-1357,45565,53.0459,0.0007601,15.64894406,368.4105117515737,378.6744148716998,1 45565U 20025AL  26115.52752875  .00045768  00000+0  46175-3 0  9995,2 45565  53.0459 169.6494 0007601 345.7834  14.2966 15.64894406333374
STARLINK-1361,45567,53.0462,0.0001229,15.55296055,400.4589786951392,402.1253623852581,1 45567U 20025AN  26115.70913187  .00069309  00000+0  10027-2 0  9995,2 45567  53.0462 207.7194 0001229 254.5751 105.5124 15.55296055332854
STARLINK-1363,45568,53.0346,0.0003441,15.91485067,295.82909813988863,300.4237026120272,1 45568U 20025AP  26116.00003472  .00264553  37188-4  80909-3 0  9994,2 45568  53.0346 159.0368 0003441  24.5366 146.4756 15.91485067  5926
STARLINK-1366,45569,53.0354,0.0003306,15.88430081,304.4738454534627,308.8938489976481,1 45569U 20025AQ  26116.00003472  .00210585  00000+0  72758-3 0  9992,2 45569  53.0354 160.3936 0003306   3.5503 161.1986 15.88430081  5709
STARLINK-1376,45570,53.1582,0.0003701,15.34402113,460.1651672844464,465.2287525815891,1 45570U 20025AR  26115.61792083  .00037333  00000+0  11103-2 0  9997,2 45570  53.1582 219.1486 0003701 338.6884  21.3964 15.34402113332691
STARLINK-1320,45572,53.045,0.0002677,15.7671018,337.9706813645562,341.5674482716595,1 45572U 20025AT  26115.70348735  .00091967  00000+0  56017-3 0  9997,2 45572  53.0450 112.3230 0002677 125.5259 234.6011 15.76710180334200
STARLINK-1321,45573,53.0454,0.0004645,15.56507118,394.62774752562746,400.92256992108196,1 45573U 20025AU  26115.62121318  .00068083  00000+0  94187-3 0  9998,2 45573  53.0454 192.4008 0004645 334.1128  25.9650 15.56507118332758
STARLINK-1331,45578,53.0489,0.0006102,15.56064942,394.923295209328,403.1941848904835,1 45578U 20025AZ  26115.69940078  .00057710  00000+0  81339-3 0  9992,2 45578  53.0489 198.7952 0006102 313.3455  46.7046 15.56064942332988
STARLINK-1333,45580,53.1563,0.0001735,15.31520331,470.08725843282537,472.46400461596477,1 45580U 20025BB  26115.77739408  .00040254  00000+0  13092-2 0  9992,2 45580  53.1563 219.0038 0001735  24.4021 335.7062 15.31520331332715
STARLINK-1335,45581,53.1558,0.0002434,15.33059943,465.0230423215062,468.3551036538365,1 45581U 20025BC  26115.65521194  .00023023  00000+0  72015-3 0  9997,2 45581  53.1558 216.7813 0002434   5.2822 354.8205 15.33059943332728
STARLINK-1337,45582,53.0483,0.0006803,15.67471156,361.55295704693344,370.72922181541253,1 45582U 20025BD  26115.69020565  .00097502  00000+0  87610-3 0  9998,2 45582  53.0483 191.8867 0006803 324.7443  35.3121 15.67471156333066
STARLINK-1347,45586,53.0405,0.0004927,15.63711676,373.61827448233817,380.27473376730177,1 45586U 20025BH  26115.41451163  .00090492  00000+0  94653-3 0  9990,2 45586  53.0405 162.1797 0004927   1.2776 358.8249 15.63711676333455
STARLINK-1364,45589,53.0454,0.0004774,15.57641826,391.2507739137145,397.71727246665705,1 45589U 20025BL  26115.51519975  .00069883  00000+0  92638-3 0  9991,2 45589  53.0454 197.2322 0004774 288.7709  71.2784 15.57641826332971
STARLINK-1365,45590,53.0475,0.0003785,15.52598417,406.5737465639668,411.7117173210472,1 45590U 20025BM  26115.57340356  .00046069  00000+0  73966-3 0  9998,2 45590  53.0475 228.8914 0003785 288.0145  72.0451 15.52598417332558
STARLINK-1443,45660,53.1354,0.0002579,15.29181902,476.4883490586035,480.02487688417386,1 45660U 20035D   26115.57066254  .00031846  00000+0  11171-2 0  9995,2 45660  53.1354 208.0080 0002579 322.6482  37.4338 15.29181902325929
STARLINK-1446,45663,53.0223,0.0004392,15.45012264,428.35131385122804,434.33276023736653,1 45663U 20035G   26115.35415757  .00034135  00000+0  71781-3 0  9998,2 45663  53.0223 137.3648 0004392  51.0336 309.1060 15.45012264326885
STARLINK-1448,45665,53.0452,0.0006537,15.62328341,376.51495489595163,385.35176348355617,1 45665U 20035J   26115.68835237  .00089055  00000+0  98310-3 0  9993,2 45665  53.0452 184.6730 0006537 315.9840  44.0652 15.62328341326240
STARLINK-1451,45668,53.0518,9.71e-05,15.12386206,528.2545655170043,529.595917004257,1 45668U 20035M   26116.00003472  .00005012  00000+0  30226-3 0  9994,2 45668  53.0518 212.0543 0000971  14.1924 178.2101 15.12386206  5715
STARLINK-1452,45669,53.0277,0.0001546,15.51700787,410.7103048213712,412.80974098085153,1 45669U 20035N   26115.40633562  .00063992  00000+0  10558-2 0  9993,2 45669  53.0277 157.9428 0001546 322.2784  37.8116 15.51700787326600
STARLINK-1453,45670,53.0423,0.0003423,15.62894366,376.98825889081127,381.61440117155144,1 45670U 20035P   26115.79544643  .00097870  00000+0  10559-2 0  9991,2 45670  53.0423 144.5891 0003423  33.8059 326.3172 15.62894366326716
STARLINK-1454,45671,53.0452,0.0004649,15.59895731,384.81301945865744,391.1041351264248,1 45671U 20035Q   26115.51332515  .00052044  00000+0  63668-3 0  9999,2 45671  53.0452 186.1688 0004649 296.9696  63.0841 15.59895731326200
STARLINK-1456,45673,53.0446,0.0007326,15.5816434,388.0093409229021,397.9303666850956,1 45673U 20035S   26115.37188542  .00090021  00000+0  11647-2 0  9990,2 45673  53.0446 180.9311 0007326 351.1274   8.9607 15.58164340326281
STARLINK-1457,45674,53.0376,0.0004929,15.96454168,280.98167579142773,287.5494722488975,1 45674U 20035T   26116.00003472  .00347734  59765-4  81359-3 0  9991,2 45674  53.0376 142.6417 0004929  13.6008 155.1162 15.96454168  6038
STARLINK-1458,45675,53.0494,0.0005731,15.49888679,413.1571042460937,420.94574922081574,1 45675U 20035U   26115.53431397  .00060846  00000+0  10709-2 0  9999,2 45675  53.0494 191.9372 0005731 309.1893  50.8605 15.49888679326106
STARLINK-1460,45676,53.1572,0.0002347,15.31451885,469.87210794184193,473.08731802691636,1 45676U 20035V   26115.94469391  .00043889  00000+0  14287-2 0  9993,2 45676  53.1572 205.3685 0002347  22.6328 337.4776 15.31451885325953
STARLINK-1392,45677,53.1541,0.0001446,15.34355482,461.84635565183726,463.8247649162722,1 45677U 20035W   26115.65925505  .00039393  00000+0  11726-2 0  9996,2 45677  53.1541 206.3080 0001446  31.6551 328.4538 15.34355482325952
STARLINK-1394,45679,53.0427,0.000828,15.58096716,387.5591319243531,398.7724093124971,1 45679U 20035Y   26115.43334998  .00113411  00000+0  14646-2 0  9992,2 45679  53.0427 170.8569 0008280 354.6051   5.4870 15.58096716326421
STARLINK-1402,45685,53.0439,0.0007963,15.52036599,405.3745587986423,416.1865889267765,1 45685U 20035AE  26115.37943533  .00071435  00000+0  11613-2 0  9993,2 45685  53.0439 159.7993 0007963  19.7399 340.3917 15.52036599326586
